SAUDISAT 1C (SO-50)     
1 27607U 02058C   26171.18974593  .00000729  00000+0  10356-3 0  9995
2 27607  64.5514 119.6951 0075161 261.9163  97.3411 14.83052340264905
SAUDISAT 2              
1 28371U 04025F   26170.98259415  .00000173  00000+0  49656-4 0  9995
2 28371  98.5507 171.0368 0023505 289.2174  70.6480 14.56685199166159
SAUDISAT 3              
1 31118U 07012B   26170.84277103  .00000189  00000+0  38781-4 0  9990
2 31118  98.1456 121.2452 0013797 214.8497 145.1807 14.71426873 28131
PISAT                   
1 41784U 16059B   26170.93675114  .00000626  00000+0  11424-3 0  9995
2 41784  97.8178 171.2714 0028602 193.8263 166.2163 14.68987180520148
FLYING LAPTOP           
1 42831U 17042G   26171.31841877  .00002502  00000+0  19893-3 0  9999
2 42831  97.4705 326.7303 0019726 111.7060 248.6267 15.01161888486920
SALSAT                  
1 46495U 20068K   26170.95810387  .00006379  00000+0  22355-3 0  9995
2 46495  97.8854 174.1914 0007892 296.5001  63.5428 15.29832652315782
